NORAD_CAT_ID,OBJECT_NAME,OBJECT_TYPE,EPOCH,MEAN_MOTION,ECCENTRICITY,INCLINATION,RA_OF_ASC_NODE,ARG_OF_PERICENTER,MEAN_ANOMALY,BSTAR,MEAN_MOTION_DOT,MEAN_MOTION_DDOT,TLE_LINE0,TLE_LINE1,TLE_LINE2,SEMIMAJOR_AXIS,PERIOD,APOGEE,PERIGEE,DECAYED
53707.0,STARLINK-4667,PAYLOAD,2022-11-09 06:00:00,15.732498199999998,0.0003627,53.2137,310.6621,10.7803,272.4214,-0.0018025,-0.00246974,0.0,0 STARLINK-4667,1 53707U 22107H   22313.25001157 -.00246974  00000-0 -18025-2 0  9998,2 53707  53.2137 310.6621 0003627  10.7803 272.4214 15.73249820 10375,6727.753000000002,91.53,352.05800000000005,347.17800000000005,0.0
53707.0,STARLINK-4667,PAYLOAD,2022-11-09 14:00:01,15.73045273,0.0003723,53.2134,309.0124,8.7092,3.3754,0.00044209,0.00061485,0.0,0 STARLINK-4667,1 53707U 22107H   22313.58334491  .00061485  00000-0  44209-3 0  9998,2 53707  53.2134 309.0124 0003723   8.7092   3.3754 15.73045273  1305,6728.3359999999975,91.542,352.706,347.696,0.0
53707.0,STARLINK-4667,PAYLOAD,2022-11-09 22:00:01,15.73066557,0.0003442,53.2135,307.3614,10.9872,89.9293,0.0007817999999999,0.00109938,0.0,0 STARLINK-4667,1 53707U 22107H   22313.91668981  .00109938  00000-0  78180-3 0  9990,2 53707  53.2135 307.3614 0003442  10.9872  89.9293 15.73066557 10485,6728.276,91.541,352.457,347.825,0.0
53707.0,STARLINK-4667,PAYLOAD,2022-11-10 14:00:01,15.73140218,0.0003648,53.2135,304.0641,8.5848,269.9275,0.00026121,0.00036111,0.0,0 STARLINK-4667,1 53707U 22107H   22314.58334491  .00036111  00000-0  26121-3 0  9990,2 53707  53.2135 304.0641 0003648   8.5848 269.9275 15.73140218  1301,6728.066,91.537,352.385,347.476,0.0
53707.0,STARLINK-4667,PAYLOAD,2022-11-10 16:00:00,15.73149046,0.0003559,53.2138,303.6512,9.2704,21.4553,0.00027,0.00037367,0.0,0 STARLINK-4667,1 53707U 22107H   22314.66667824  .00037367  00000-0  27000-3 0  9999,2 53707  53.2138 303.6512 0003559   9.2704  21.4553 15.73149046 10607,6728.04,91.536,352.3,347.511,0.0
53707.0,STARLINK-4667,PAYLOAD,2022-11-10 22:00:00,15.73151881,0.0003451,53.2139,302.4129,11.3409,356.0451,0.0007531,0.00106221,0.0,0 STARLINK-4667,1 53707U 22107H   22314.91667824  .00106221  00000-0  75310-3 0  9990,2 53707  53.2139 302.4129 0003451  11.3409 356.0451 15.73151881  1307,6728.031999999997,91.536,352.219,347.576,0.0
53707.0,STARLINK-4667,PAYLOAD,2022-11-11 08:00:01,15.73231165,0.0003726,53.2142,300.3533,10.9011,197.6494,-0.00011165,-0.00016291,0.0,0 STARLINK-4667,1 53707U 22107H   22315.33334491 -.00016291  00000-0 -11165-3 0  9995,2 53707  53.2142 300.3533 0003726  10.9011 197.6494 15.73231165 10700,6727.806,91.531,352.17800000000005,347.165,0.0
53707.0,STARLINK-4667,PAYLOAD,2022-11-11 14:00:01,15.73223189,0.0003625,53.2138,299.1152,9.0515,176.2171,0.00022162,0.00030633,0.0,0 STARLINK-4667,1 53707U 22107H   22315.58334491  .00030633  00000-0  22162-3 0  9995,2 53707  53.2138 299.1152 0003625   9.0515 176.2171 15.73223189  1301,6727.829000000002,91.532,352.1330000000001,347.255,0.0
53707.0,STARLINK-4667,PAYLOAD,2022-11-11 22:00:00,15.7326908,0.0003327,53.2139,297.4642,8.4517,265.7948,-7.3697e-05,-0.00010987,0.0,0 STARLINK-4667,1 53707U 22107H   22315.91667824 -.00010987  00000-0 -73697-4 0  9993,2 53707  53.2139 297.4642 0003327   8.4517 265.7948 15.73269080 10790,6727.698,91.529,351.802,347.325,0.0
53707.0,STARLINK-4667,PAYLOAD,2022-11-12 14:00:01,15.73282552,0.0003551,53.2137,294.1661,6.3999,85.8319,-0.00063667,-0.00089384,0.0,0 STARLINK-4667,1 53707U 22107H   22316.58334491 -.00089384  00000-0 -63667-3 0  9990,2 53707  53.2137 294.1661 0003551   6.3999  85.8319 15.73282552  1302,6727.66,91.528,351.914,347.136,0.0
53707.0,STARLINK-4667,PAYLOAD,2022-11-12 22:00:00,15.73228318,0.0003306,53.2141,292.5151,8.6185,172.5989,-0.00023764,-0.00033891,0.0,0 STARLINK-4667,1 53707U 22107H   22316.91667824 -.00033891  00000-0 -23764-3 0  9992,2 53707  53.2141 292.5151 0003306   8.6185 172.5989 15.73228318 10951,6727.814,91.532,351.904,347.455,0.0
53707.0,STARLINK-4667,PAYLOAD,2022-11-13 14:00:01,15.73170705,0.0003512,53.2138,289.2173,7.3335,351.7251,-0.0004813,-0.00067572,0.0,0 STARLINK-4667,1 53707U 22107H   22317.58334491 -.00067572  00000-0 -48130-3 0  9994,2 53707  53.2138 289.2173 0003512   7.3335 351.7251 15.73170705 11068,6727.979,91.535,352.207,347.481,0.0
53707.0,STARLINK-4667,PAYLOAD,2022-11-13 22:00:00,15.73124072,0.000333,53.2139,287.5669,11.1549,76.7567,0.001282,0.00182698,0.0,0 STARLINK-4667,1 53707U 22107H   22317.91667824  .00182698  00000-0  12820-2 0  9991,2 53707  53.2139 287.5669 0003330  11.1549  76.7567 15.73124072 11114,6728.111999999999,91.538,352.217,347.736,0.0
53707.0,STARLINK-4667,PAYLOAD,2022-11-14 14:00:01,15.73228404,0.0003445,53.214,284.2691,6.7359,259.0501,-0.00025095,-0.00035749,0.0,0 STARLINK-4667,1 53707U 22107H   22318.58334491 -.00035749  00000-0 -25095-3 0  9991,2 53707  53.2140 284.2691 0003445   6.7359 259.0501 15.73228404 11210,6727.814,91.532,351.997,347.361,0.0
53707.0,STARLINK-4667,PAYLOAD,2022-11-14 22:00:00,15.73310006,0.000331,53.2155,282.6185,5.9532,348.7584,-0.0014878,-0.00205463,0.0,0 STARLINK-4667,1 53707U 22107H   22318.91667824 -.00205463  00000-0 -14878-2 0  9995,2 53707  53.2155 282.6185 0003310   5.9532 348.7584 15.73310006  1307,6727.581999999999,91.527,351.673,347.22,0.0
53707.0,STARLINK-4667,PAYLOAD,2022-11-15 08:00:01,15.7319253,0.0003565,53.2142,280.5584,8.2583,187.741,-9.8267e-05,-0.00014392,0.0,0 STARLINK-4667,1 53707U 22107H   22319.33335648 -.00014392  00000-0 -98267-4 0  9993,2 53707  53.2142 280.5584 0003565   8.2583 187.7410 15.73192530 11330,6727.916,91.534,352.18,347.3830000000001,0.0
53707.0,STARLINK-4667,PAYLOAD,2022-11-15 14:00:01,15.73184252,0.000343,53.2145,279.3199,5.8004,166.8176,-0.00040441,-0.00056979,0.0,0 STARLINK-4667,1 53707U 22107H   22319.58334491 -.00056979  00000-0 -40441-3 0  9992,2 53707  53.2145 279.3199 0003430   5.8004 166.8176 15.73184252  1308,6727.94,91.534,352.11300000000006,347.497,0.0
53707.0,STARLINK-4667,PAYLOAD,2022-11-15 22:00:00,15.7316142,0.0003224,53.2149,277.6699,6.2608,255.2357,0.00049658,0.00069548,0.0,0 STARLINK-4667,1 53707U 22107H   22319.91667824  .00069548  00000-0  49658-3 0  9991,2 53707  53.2149 277.6699 0003224   6.2608 255.2357 15.73161420  1300,6728.005,91.535,352.039,347.701,0.0
53707.0,STARLINK-4667,PAYLOAD,2022-11-16 14:00:01,15.73178638,0.0003457,53.216,274.3726,7.1341,72.2682,0.00084619,0.00119758,0.0,0 STARLINK-4667,1 53707U 22107H   22320.58335648  .00119758  00000-0  84619-3 0  9997,2 53707  53.2160 274.3726 0003457   7.1341  72.2682 15.73178638 11533,6727.956,91.534,352.147,347.495,0.0
53707.0,STARLINK-4667,PAYLOAD,2022-11-16 20:00:01,15.73299924,0.0003415,53.2165,273.1345,11.6687,44.3623,-0.00097991,-0.00136576,0.0,0 STARLINK-4667,1 53707U 22107H   22320.83334491 -.00136576  00000-0 -97991-3 0  9996,2 53707  53.2165 273.1345 0003415  11.6687  44.3623 15.73299924 11570,6727.61,91.527,351.773,347.17800000000005,0.0
53707.0,STARLINK-4667,PAYLOAD,2022-11-16 22:00:08,15.7325163,0.000347,53.2169,272.7221,13.4044,155.3513,-0.00053415,-0.00075116,0.0,0 STARLINK-4667,1 53707U 22107H   22320.91675926 -.00075116  00000-0 -53415-3 0  9991,2 53707  53.2169 272.7221 0003470  13.4044 155.3513 15.73251630  1303,6727.748000000001,91.53,351.9480000000001,347.278,0.0
53707.0,STARLINK-4667,PAYLOAD,2022-11-17 06:00:00,15.73191362,0.0003486,53.215,271.0737,3.8525,253.4264,0.00065397,0.00092159,0.0,0 STARLINK-4667,1 53707U 22107H   22321.25001157  .00092159  00000-0  65397-3 0  9994,2 53707  53.2150 271.0737 0003486   3.8525 253.4264 15.73191362 11636,6727.92,91.534,352.13,347.439,0.0
53707.0,STARLINK-4667,PAYLOAD,2022-11-17 14:00:01,15.73286161,0.0003315,53.2148,269.4225,4.5317,341.6898,-0.00059511,-0.00083654,0.0,0 STARLINK-4667,1 53707U 22107H   22321.58334491 -.00083654  00000-0 -59511-3 0  9993,2 53707  53.2148 269.4225 0003315   4.5317 341.6898 15.73286161  1302,6727.65,91.528,351.745,347.284,0.0
53707.0,STARLINK-4667,PAYLOAD,2022-11-17 22:00:00,15.73263041,0.0003249,53.2147,267.7726,8.8933,66.3101,-0.00052665,-0.0007411,0.0,0 STARLINK-4667,1 53707U 22107H   22321.91667824 -.00074110  00000-0 -52665-3 0  9999,2 53707  53.2147 267.7726 0003249   8.8933  66.3101 15.73263041  1305,6727.715,91.53,351.766,347.395,0.0
53707.0,STARLINK-4667,PAYLOAD,2022-11-18 06:00:00,15.73170458,0.0003503,53.2144,266.1248,8.8413,155.3465,-8.472799999999999e-05,-0.00012486,0.0,0 STARLINK-4667,1 53707U 22107H   22322.25001157 -.00012486  00000-0 -84728-4 0  9992,2 53707  53.2144 266.1248 0003503   8.8413 155.3465 15.73170458 11795,6727.979,91.535,352.201,347.48800000000006,0.0
53707.0,STARLINK-4667,PAYLOAD,2022-11-18 14:00:01,15.73159713,0.0003312,53.2143,264.4735,11.6363,241.4336,0.00027832,0.00038559,0.0,0 STARLINK-4667,1 53707U 22107H   22322.58334491  .00038559  00000-0  27832-3 0  9997,2 53707  53.2143 264.4735 0003312  11.6363 241.4336 15.73159713  1301,6728.01,91.536,352.103,347.647,0.0
53707.0,STARLINK-4667,PAYLOAD,2022-11-18 22:00:00,15.73221327,0.000323,53.2146,262.8238,12.5248,329.4311,0.00010354,0.00013949,0.0,0 STARLINK-4667,1 53707U 22107H   22322.91667824  .00013949  00000-0  10354-3 0  9990,2 53707  53.2146 262.8238 0003230  12.5248 329.4311 15.73221327 11891,6727.834,91.532,351.872,347.526,0.0
53707.0,STARLINK-4667,PAYLOAD,2022-11-19 14:00:01,15.73227222,0.0003396,53.2147,259.5246,11.1084,148.7475,-6.9667e-05,-0.00010404,0.0,0 STARLINK-4667,1 53707U 22107H   22323.58334491 -.00010404  00000-0 -69667-4 0  9992,2 53707  53.2147 259.5246 0003396  11.1084 148.7475 15.73227222  1308,6727.818,91.532,351.967,347.398,0.0
53707.0,STARLINK-4667,PAYLOAD,2022-11-19 22:00:00,15.73225608,0.0003358,53.2146,257.8751,14.1724,234.6397,-0.00024527,-0.00034952,0.0,0 STARLINK-4667,1 53707U 22107H   22323.91667824 -.00034952  00000-0 -24527-3 0  9997,2 53707  53.2146 257.8751 0003358  14.1724 234.6397 15.73225608  1305,6727.821999999999,91.532,351.946,347.42800000000005,0.0
